{"type": "FeatureCollection", "features": [ {"type": "Feature", "properties": {"norad_id": 34861, "name": "COSMOS 2251 DEB", "group": "cosmos-2251-debris", "lat": 40.89366265868303, "lon": 84.17855351394459, "alt_km": 555.2303776386052, "timestamp": "2025-12-03T10:52:57.851662+00:00", "meta": {"OBJECT_NAME": "COSMOS 2251 DEB", "OBJECT_ID": "1993-036ACF", "EPOCH": "2025-12-02T07:45:26.512992", "MEAN_MOTION": 15.01510655, "ECCENTRICITY": 0.0006055, "INCLINATION": 74.0189, "RA_OF_ASC_NODE": 72.1119, "ARG_OF_PERICENTER": 86.6939, "MEAN_ANOMALY": 329.4268, "EPHEMERIS_TYPE": 0, "CLASSIFICATION_TYPE": "U", "NORAD_CAT_ID": 34861, "ELEMENT_SET_NO": 999, "REV_AT_EPOCH": 87936, "BSTAR": 0.0029775, "MEAN_MOTION_DOT": 0.00038722, "MEAN_MOTION_DDOT": 0}, "tle": {"line1": "1 34861U 93036ACF 25336.32322353  .00038722  00000+0  29775-2 0  9998", "line2": "2 34861  74.0189  72.1119 0006055  86.6939 329.4268 15.01510655879367"}}, "geometry": {"type": "Point", "coordinates": [84.17855351394459, 40.89366265868303]}}, {"type": "Feature", "properties": {"norad_id": 34874, "name": "COSMOS 2251 DEB", "group": "cosmos-2251-debris", "lat": 32.14988309410713, "lon": 101.18080695655658, "alt_km": 765.6104237241598, "timestamp": "2025-12-03T10:52:57.851674+00:00", "meta": {"OBJECT_NAME": "COSMOS 2251 DEB", "OBJECT_ID": "1993-036ACM", "EPOCH": "2025-12-02T02:06:02.983392", "MEAN_MOTION": 14.36214556, "ECCENTRICITY": 0.00516078, "INCLINATION": 74.0386, "RA_OF_ASC_NODE": 93.3251, "ARG_OF_PERICENTER": 121.9349, "MEAN_ANOMALY": 52.8918, "EPHEMERIS_TYPE": 0, "CLASSIFICATION_TYPE": "U", "NORAD_CAT_ID": 34874, "ELEMENT_SET_NO": 999, "REV_AT_EPOCH": 86891, "BSTAR": 0.001217276, "MEAN_MOTION_DOT": 3.583e-05, "MEAN_MOTION_DDOT": 0}, "tle": {"line1": "1 34874U 93036ACM 25336.08753453  .00003583  00000+0  12173-2 0  9995", "line2": "2 34874  74.0386  93.3251 0051607 121.9349  52.8918 14.36214556868919"}}, "geometry": {"type": "Point", "coordinates": [101.18080695655658, 32.14988309410713]}}, {"type": "Feature", "properties": {"norad_id": 34875, "name": "COSMOS 2251 DEB", "group": "cosmos-2251-debris", "lat": 24.319290892211786, "lon": -176.9582166704949, "alt_km": 727.4791843782523, "timestamp": "2025-12-03T10:52:57.851685+00:00", "meta": {"OBJECT_NAME": "COSMOS 2251 DEB", "OBJECT_ID": "1993-036ACN", "EPOCH": "2025-12-02T23:29:38.183424", "MEAN_MOTION": 14.48872152, "ECCENTRICITY": 0.001596, "INCLINATION": 74.0432, "RA_OF_ASC_NODE": 176.5012, "ARG_OF_PERICENTER": 300.7833, "MEAN_ANOMALY": 130.367, "EPHEMERIS_TYPE": 0, "CLASSIFICATION_TYPE": "U", "NORAD_CAT_ID": 34875, "ELEMENT_SET_NO": 999, "REV_AT_EPOCH": 87614, "BSTAR": 0.00050896, "MEAN_MOTION_DOT": 1.901e-05, "MEAN_MOTION_DDOT": 0}, "tle": {"line1": "1 34875U 93036ACN 25336.97891416  .00001901  00000+0  50896-3 0  9993", "line2": "2 34875  74.0432 176.5012 0015960 300.7833 130.3670 14.48872152876144"}}, "geometry": {"type": "Point", "coordinates": [-176.9582166704949, 24.319290892211786]}}, {"type": "Feature", "properties": {"norad_id": 34878, "name": "COSMOS 2251 DEB", "group": "cosmos-2251-debris", "lat": 48.95109213134808, "lon": 81.33885392629725, "alt_km": 764.5484936309349, "timestamp": "2025-12-03T10:52:57.851696+00:00", "meta": {"OBJECT_NAME": "COSMOS 2251 DEB", "OBJECT_ID": "1993-036ACR", "EPOCH": "2025-12-01T14:17:05.154720", "MEAN_MOTION": 13.44171436, "ECCENTRICITY": 0.04352412, "INCLINATION": 73.9642, "RA_OF_ASC_NODE": 65.0008, "ARG_OF_PERICENTER": 50.7211, "MEAN_ANOMALY": 11.8748, "EPHEMERIS_TYPE": 0, "CLASSIFICATION_TYPE": "U", "NORAD_CAT_ID": 34878, "ELEMENT_SET_NO": 999, "REV_AT_EPOCH": 81123, "BSTAR": 0.00042153975, "MEAN_MOTION_DOT": 4.13e-06, "MEAN_MOTION_DDOT": 0}, "tle": {"line1": "1 34878U 93036ACR 25335.59519855  .00000413  00000+0  42154-3 0  9992", "line2": "2 34878  73.9642  65.0008 0435241  50.7211  11.8748 13.44171436811235"}}, "geometry": {"type": "Point", "coordinates": [81.33885392629725, 48.95109213134808]}}, {"type": "Feature", "properties": {"norad_id": 34882, "name": "COSMOS 2251 DEB", "group": "cosmos-2251-debris", "lat": -72.99316789573143, "lon": 132.60983342069966, "alt_km": 713.2049976279814, "timestamp": "2025-12-03T10:52:57.851707+00:00", "meta": {"OBJECT_NAME": "COSMOS 2251 DEB", "OBJECT_ID": "1993-036ACV", "EPOCH": "2025-12-02T04:06:20.931840", "MEAN_MOTION": 14.61559907, "ECCENTRICITY": 0.00823687, "INCLINATION": 74.0469, "RA_OF_ASC_NODE": 245.796, "ARG_OF_PERICENTER": 15.4065, "MEAN_ANOMALY": 344.9579, "EPHEMERIS_TYPE": 0, "CLASSIFICATION_TYPE": "U", "NORAD_CAT_ID": 34882, "ELEMENT_SET_NO": 999, "REV_AT_EPOCH": 88370, "BSTAR": 0.0002608608, "MEAN_MOTION_DOT": 1.327e-05, "MEAN_MOTION_DDOT": 0}, "tle": {"line1": "1 34882U 93036ACV 25336.17107560  .00001327  00000+0  26086-3 0  9999", "line2": "2 34882  74.0469 245.7960 0082368  15.4065 344.9579 14.61559907883702"}}, "geometry": {"type": "Point", "coordinates": [132.60983342069966, -72.99316789573143]}}, {"type": "Feature", "properties": {"norad_id": 34883, "name": "COSMOS 2251 DEB", "group": "cosmos-2251-debris", "lat": -57.414766584046156, "lon": 53.722236054939124, "alt_km": 672.19777746612, "timestamp": "2025-12-03T10:52:57.851719+00:00", "meta": {"OBJECT_NAME": "COSMOS 2251 DEB", "OBJECT_ID": "1993-036ACW", "EPOCH": "2025-12-02T07:01:45.378912", "MEAN_MOTION": 14.50855813, "ECCENTRICITY": 0.0095087, "INCLINATION": 74.1989, "RA_OF_ASC_NODE": 82.1807, "ARG_OF_PERICENTER": 269.0974, "MEAN_ANOMALY": 89.9292, "EPHEMERIS_TYPE": 0, "CLASSIFICATION_TYPE": "U", "NORAD_CAT_ID": 34883, "ELEMENT_SET_NO": 999, "REV_AT_EPOCH": 86288, "BSTAR": 0.0060298, "MEAN_MOTION_DOT": 0.00025271, "MEAN_MOTION_DDOT": 0}, "tle": {"line1": "1 34883U 93036ACW 25336.29288633  .00025271  00000+0  60298-2 0  9990", "line2": "2 34883  74.1989  82.1807 0095087 269.0974  89.9292 14.50855813862889"}}, "geometry": {"type": "Point", "coordinates": [53.722236054939124, -57.414766584046156]}}, {"type": "Feature", "properties": {"norad_id": 34884, "name": "COSMOS 2251 DEB", "group": "cosmos-2251-debris", "lat": 25.66680053136304, "lon": 83.25310386135857, "alt_km": 599.8656688997389, "timestamp": "2025-12-03T10:52:57.851729+00:00", "meta": {"OBJECT_NAME": "COSMOS 2251 DEB", "OBJECT_ID": "1993-036ACX", "EPOCH": "2025-12-02T17:34:12.989856", "MEAN_MOTION": 14.89235087, "ECCENTRICITY": 0.0003017, "INCLINATION": 74.0178, "RA_OF_ASC_NODE": 76.7793, "ARG_OF_PERICENTER": 142.4806, "MEAN_ANOMALY": 338.6479, "EPHEMERIS_TYPE": 0, "CLASSIFICATION_TYPE": "U", "NORAD_CAT_ID": 34884, "ELEMENT_SET_NO": 999, "REV_AT_EPOCH": 87656, "BSTAR": 0.0037189, "MEAN_MOTION_DOT": 0.00035347, "MEAN_MOTION_DDOT": 0}, "tle": {"line1": "1 34884U 93036ACX 25336.73209479  .00035347  00000+0  37189-2 0  9999", "line2": "2 34884  74.0178  76.7793 0003017 142.4806 338.6479 14.89235087876560"}}, "geometry": {"type": "Point", "coordinates": [83.25310386135857, 25.66680053136304]}}, {"type": "Feature", "properties": {"norad_id": 34885, "name": "COSMOS 2251 DEB", "group": "cosmos-2251-debris", "lat": 64.50368452767252, "lon": -16.39544136915949, "alt_km": 725.3084227352374, "timestamp": "2025-12-03T10:52:57.851740+00:00", "meta": {"OBJECT_NAME": "COSMOS 2251 DEB", "OBJECT_ID": "1993-036ACY", "EPOCH": "2025-12-03T01:01:17.737824", "MEAN_MOTION": 14.5142198, "ECCENTRICITY": 0.0015466, "INCLINATION": 74.0311, "RA_OF_ASC_NODE": 201.2789, "ARG_OF_PERICENTER": 287.0539, "MEAN_ANOMALY": 197.0279, "EPHEMERIS_TYPE": 0, "CLASSIFICATION_TYPE": "U", "NORAD_CAT_ID": 34885, "ELEMENT_SET_NO": 999, "REV_AT_EPOCH": 87338, "BSTAR": 0.00082939, "MEAN_MOTION_DOT": 3.288e-05, "MEAN_MOTION_DDOT": 0}, "tle": {"line1": "1 34885U 93036ACY 25337.04256641  .00003288  00000+0  82939-3 0  9991", "line2": "2 34885  74.0311 201.2789 0015466 287.0539 197.0279 14.51421980873380"}}, "geometry": {"type": "Point", "coordinates": [-16.39544136915949, 64.50368452767252]}}, {"type": "Feature", "properties": {"norad_id": 34886, "name": "COSMOS 2251 DEB", "group": "cosmos-2251-debris", "lat": -10.629579357670922, "lon": 24.191876882523975, "alt_km": 479.72426430124597, "timestamp": "2025-12-03T10:52:57.851751+00:00", "meta": {"OBJECT_NAME": "COSMOS 2251 DEB", "OBJECT_ID": "1993-036ACZ", "EPOCH": "2025-12-02T21:33:25.254144", "MEAN_MOTION": 15.36781254, "ECCENTRICITY": 0.0031082, "INCLINATION": 73.9522, "RA_OF_ASC_NODE": 202.2947, "ARG_OF_PERICENTER": 28.5971, "MEAN_ANOMALY": 331.6931, "EPHEMERIS_TYPE": 0, "CLASSIFICATION_TYPE": "U", "NORAD_CAT_ID": 34886, "ELEMENT_SET_NO": 999, "REV_AT_EPOCH": 62847, "BSTAR": 0.0022653, "MEAN_MOTION_DOT": 0.00083623, "MEAN_MOTION_DDOT": 0}, "tle": {"line1": "1 34886U 93036ACZ 25336.89820896  .00083623  00000+0  22653-2 0  9990", "line2": "2 34886  73.9522 202.2947 0031082  28.5971 331.6931 15.36781254628476"}}, "geometry": {"type": "Point", "coordinates": [24.191876882523975, -10.629579357670922]}}, {"type": "Feature", "properties": {"norad_id": 34907, "name": "COSMOS 2251 DEB", "group": "cosmos-2251-debris", "lat": 41.82384933490874, "lon": 83.46576593867528, "alt_km": 446.62638000925654, "timestamp": "2025-12-03T10:52:57.851764+00:00", "meta": {"OBJECT_NAME": "COSMOS 2251 DEB", "OBJECT_ID": "1993-036ADC", "EPOCH": "2025-12-02T14:22:10.933824", "MEAN_MOTION": 15.3561269, "ECCENTRICITY": 0.00168079, "INCLINATION": 73.9751, "RA_OF_ASC_NODE": 70.4034, "ARG_OF_PERICENTER": 355.3309, "MEAN_ANOMALY": 4.7737, "EPHEMERIS_TYPE": 0, "CLASSIFICATION_TYPE": "U", "NORAD_CAT_ID": 34907, "ELEMENT_SET_NO": 999, "REV_AT_EPOCH": 87817, "BSTAR": 0.00889219, "MEAN_MOTION_DOT": 0.00322607, "MEAN_MOTION_DDOT": 0}, "tle": {"line1": "1 34907U 93036ADC 25336.59873766  .00322607  00000+0  88922-2 0  9994", "line2": "2 34907  73.9751  70.4034 0016807 355.3309   4.7737 15.35612690878172"}}, "geometry": {"type": "Point", "coordinates": [83.46576593867528, 41.82384933490874]}}]}